[{"OBJECT_NAME":"GEESAT-4 03","OBJECT_ID":"2025-170C","EPOCH":"2026-03-09T22:09:07.867872","MEAN_MOTION":14.83663029,"ECCENTRICITY":0.00208622,"INCLINATION":49.9912,"RA_OF_ASC_NODE":274.3291,"ARG_OF_PERICENTER":40.9482,"MEAN_ANOMALY":319.3019,"EPHEMERIS_TYPE":0,"CLASSIFICATION_TYPE":"U","NORAD_CAT_ID":65121,"ELEMENT_SET_NO":999,"REV_AT_EPOCH":3169,"BSTAR":0.00035876344,"MEAN_MOTION_DOT":2.774e-5,"MEAN_MOTION_DDOT":0},{"OBJECT_NAME":"NOAA 17 DEB","OBJECT_ID":"2002-032BF","EPOCH":"2026-03-09T07:02:00.601728","MEAN_MOTION":14.87780819,"ECCENTRICITY":0.00089717,"INCLINATION":98.702,"RA_OF_ASC_NODE":93.8516,"ARG_OF_PERICENTER":243.9708,"MEAN_ANOMALY":116.0582,"EPHEMERIS_TYPE":0,"CLASSIFICATION_TYPE":"U","NORAD_CAT_ID":48722,"ELEMENT_SET_NO":999,"REV_AT_EPOCH":26307,"BSTAR":0.0035728172,"MEAN_MOTION_DOT":0.00032718,"MEAN_MOTION_DDOT":0}]
